0 DELTA 1 DEB
1 10828U 76077BY  13282.58209506 -.00000033  00000-0  93287-4 0  6354
2 10828 102.0544 305.1628 0099507 303.1610 181.7349 12.22274204660614
0 DELTA 1 DEB
1 10828U 76077BY  13287.06020238 -.00000027  00000-0  14788-3 0  6378
2 10828 102.0533 309.4504 0099499 295.1047 086.2685 12.22274422661161
0 DELTA 1 DEB
1 10828U 76077BY  13290.01445373 -.00000049  00000-0 -52421-4 0  6381
2 10828 102.0528 312.2785 0099502 289.7934 125.5397 12.22274736661522
0 DELTA 1 DEB
1 10828U 76077BY  13292.57462990 -.00000045  00000-0 -14069-4 0  6391
2 10828 102.0528 314.7291 0099516 285.1834 230.8161 12.22274630661831
0 DELTA 1 DEB
1 10828U 76077BY  13294.61319133 -.00000054  00000-0 -10208-3 0  6400
2 10828 102.0529 316.6803 0099520 281.5131 200.8830 12.22274719662083
